GLOBALSTAR M084 [+]     
1 38040U 11080A   23297.42655250 -.00000096  00000+0  41303-4 0  9997
2 38040  52.0002  80.4510 0000967 116.6015 282.3043 12.62267085546675
GLOBALSTAR M080 [+]     
1 38041U 11080B   23297.39564611 -.00000101  00000+0  13048-4 0  9996
2 38041  52.0053  81.9401 0001191 113.3199 265.2867 12.62265668546796
GLOBALSTAR M082 [+]     
1 38042U 11080C   23297.56567872 -.00000096  00000+0  42012-4 0  9994
2 38042  52.0097  36.8047 0000255  32.3096 340.4059 12.62271721547524
GLOBALSTAR M092 [+]     
1 38043U 11080D   23297.54316153 -.00000076  00000+0  15356-3 0  9995
2 38043  52.0058 127.2179 0000914 113.0102 277.7806 12.62273547545977
GLOBALSTAR M090 [+]     
1 38044U 11080E   23297.59246565 -.00000098  00000+0  30883-4 0  9997
2 38044  51.9909  31.3060 0000489  81.0415 294.4320 12.62278286547641
GLOBALSTAR M086 [+]     
1 38045U 11080F   23297.53934816 -.00000096  00000+0  40935-4 0  9992
2 38045  51.9922  31.9735 0001457  81.5156 291.5026 12.62263466547684
GLOBALSTAR M097 [+]     
1 39072U 13005A   23297.40471911 -.00000066  00000+0  20919-3 0  9996
2 39072  52.0050 306.3228 0000611  45.6022 314.4895 12.62271784494816
GLOBALSTAR M093 [+]     
1 39073U 13005B   23297.29901243 -.00000075  00000+0  15839-3 0  9995
2 39073  51.9812 300.9105 0000832  39.0774 321.0153 12.62267848494751
